start=new Date('2023-05-23T00:00:00.000Z').valueOf();
sats=[{"LAUNCH_DATE":"2022-08-19","ELEMENT_SET_NO":"999","APOAPSIS":"540.429","DECAY_DATE":null,"TLE_LINE2":"2 53541  53.2178 341.4201 0001049  77.6435 282.4675 15.08853670 41908","TLE_LINE1":"1 53541U 22101Q   23142.83139715  .00000224  00000-0  32169-4 0  9996","NORAD_CAT_ID":"53541","INCLINATION":"53.2178","TIME_SYSTEM":"UTC","BSTAR":"0.00003216900000","REV_AT_EPOCH":"4190","FILE":"3914786","EPOCH":"2023-05-22T19:57:12.713760","REF_FRAME":"TEME","MEAN_ELEMENT_THEORY":"SGP4","COUNTRY_CODE":"US","MEAN_MOTION_DOT":"0.00000224","CLASSIFICATION_TYPE":"U","OBJECT_TYPE":"PAYLOAD","PERIOD":"95.437","RA_OF_ASC_NODE":"341.4201","OBJECT_ID":"2022-101Q","EPHEMERIS_TYPE":"0","SEMIMAJOR_AXIS":"6917.839","ECCENTRICITY":"0.00010490","CENTER_NAME":"EARTH","PERIAPSIS":"538.978","MEAN_MOTION":"15.08853670","ARG_OF_PERICENTER":"77.6435","SITE":"AFETR","GP_ID":"232331861","RCS_SIZE":"LARGE","MEAN_ANOMALY":"282.4675","MEAN_MOTION_DDOT":"0.0000000000000","OBJECT_NAME":"STARLINK-4485"},{"NORAD_CAT_ID":"53542","INCLINATION":"53.2164","TLE_LINE1":"1 53542U 22101R   23142.81024588  .00020271  00000-0  12873-2 0  9998","TLE_LINE2":"2 53542  53.2164 331.5163 0001164  61.6546 298.4563 15.08861179 42722","ELEMENT_SET_NO":"999","LAUNCH_DATE":"2022-08-19","APOAPSIS":"540.486","DECAY_DATE":null,"FILE":"3914964","REV_AT_EPOCH":"4272","EPOCH":"2023-05-22T19:26:45.244032","TIME_SYSTEM":"UTC","BSTAR":"0.00128730000000","RA_OF_ASC_NODE":"331.5163","OBJECT_ID":"2022-101R","PERIOD":"95.436","SEMIMAJOR_AXIS":"6917.816","EPHEMERIS_TYPE":"0","REF_FRAME":"TEME","COUNTRY_CODE":"US","MEAN_MOTION_DOT":"0.00020271","CLASSIFICATION_TYPE":"U","OBJECT_TYPE":"PAYLOAD","MEAN_ELEMENT_THEORY":"SGP4","SITE":"AFETR","ARG_OF_PERICENTER":"61.6546","MEAN_ANOMALY":"298.4563","RCS_SIZE":"LARGE","MEAN_MOTION_DDOT":"0.0000000000000","OBJECT_NAME":"STARLINK-4489","GP_ID":"232358974","ECCENTRICITY":"0.00011640","PERIAPSIS":"538.875","MEAN_MOTION":"15.08861179","CENTER_NAME":"EARTH"},{"TIME_SYSTEM":"UTC","BSTAR":"0.00004920500000","EPOCH":"2023-05-22T19:47:56.954400","FILE":"3914964","REV_AT_EPOCH":"4272","APOAPSIS":"540.427","DECAY_DATE":null,"ELEMENT_SET_NO":"999","LAUNCH_DATE":"2022-08-19","NORAD_CAT_ID":"53543","INCLINATION":"53.2164","TLE_LINE1":"1 53543U 22101S   23142.82496475  .00000496  00000-0  49205-4 0  9996","TLE_LINE2":"2 53543  53.2164 331.5197 0001041 104.8774 255.2333 15.08852477 42724","PERIAPSIS":"538.987","MEAN_MOTION":"15.08852477","CENTER_NAME":"EARTH","ECCENTRICITY":"0.00010410","RCS_SIZE":"LARGE","MEAN_ANOMALY":"255.2333","OBJECT_NAME":"STARLINK-4297","MEAN_MOTION_DDOT":"0.0000000000000","GP_ID":"232359224","SITE":"AFETR","ARG_OF_PERICENTER":"104.8774","COUNTRY_CODE":"US","MEAN_MOTION_DOT":"0.00000496","OBJECT_TYPE":"PAYLOAD","CLASSIFICATION_TYPE":"U","MEAN_ELEMENT_THEORY":"SGP4","REF_FRAME":"TEME","SEMIMAJOR_AXIS":"6917.842","EPHEMERIS_TYPE":"0","RA_OF_ASC_NODE":"331.5197","OBJECT_ID":"2022-101S","PERIOD":"95.437"},{"BSTAR":"0.00012905000000","TIME_SYSTEM":"UTC","FILE":"3914964","REV_AT_EPOCH":"4270","EPOCH":"2023-05-22T19:16:08.145120","ELEMENT_SET_NO":"999","LAUNCH_DATE":"2022-08-19","DECAY_DATE":null,"APOAPSIS":"540.438","INCLINATION":"53.2172","NORAD_CAT_ID":"53544","TLE_LINE1":"1 53544U 22101T   23142.80287205  .00001767  00000-0  12905-3 0  9992","TLE_LINE2":"2 53544  53.2172 331.5499 0001073  90.5576 269.5539 15.08856237 42707","ECCENTRICITY":"0.00010730","MEAN_MOTION":"15.08856237","PERIAPSIS":"538.953","CENTER_NAME":"EARTH","SITE":"AFETR","ARG_OF_PERICENTER":"90.5576","MEAN_MOTION_DDOT":"0.0000000000000","OBJECT_NAME":"STARLINK-4303","MEAN_ANOMALY":"269.5539","RCS_SIZE":"LARGE","GP_ID":"232359475","REF_FRAME":"TEME","CLASSIFICATION_TYPE":"U","OBJECT_TYPE":"PAYLOAD","COUNTRY_CODE":"US","MEAN_MOTION_DOT":"0.00001767","MEAN_ELEMENT_THEORY":"SGP4","OBJECT_ID":"2022-101T","RA_OF_ASC_NODE":"331.5499","PERIOD":"95.437","SEMIMAJOR_AXIS":"6917.831","EPHEMERIS_TYPE":"0"},{"APOAPSIS":"540.416","DECAY_DATE":null,"LAUNCH_DATE":"2022-08-19","ELEMENT_SET_NO":"999","TLE_LINE2":"2 53545  53.2155 331.5017 0001019  61.7334 298.3761 15.08851134 42727","TLE_LINE1":"1 53545U 22101U   23142.81392870  .00014017  00000-0  89678-3 0  9992","NORAD_CAT_ID":"53545","INCLINATION":"53.2155","TIME_SYSTEM":"UTC","BSTAR":"0.00089678000000","EPOCH":"2023-05-22T19:32:03.439680","REV_AT_EPOCH":"4272","FILE":"3914964","MEAN_ELEMENT_THEORY":"SGP4","MEAN_MOTION_DOT":"0.00014017","COUNTRY_CODE":"US","CLASSIFICATION_TYPE":"U","OBJECT_TYPE":"PAYLOAD","REF_FRAME":"TEME","EPHEMERIS_TYPE":"0","SEMIMAJOR_AXIS":"6917.846","PERIOD":"95.437","RA_OF_ASC_NODE":"331.5017","OBJECT_ID":"2022-101U","CENTER_NAME":"EARTH","PERIAPSIS":"539.006","MEAN_MOTION":"15.08851134","ECCENTRICITY":"0.00010190","GP_ID":"232360211","RCS_SIZE":"LARGE","MEAN_ANOMALY":"298.3761","OBJECT_NAME":"STARLINK-4475","MEAN_MOTION_DDOT":"0.0000000000000","ARG_OF_PERICENTER":"61.7334","SITE":"AFETR"},{"ARG_OF_PERICENTER":"80.0216","SITE":"AFETR","GP_ID":"232358475","OBJECT_NAME":"STARLINK-4477","MEAN_MOTION_DDOT":"0.0000000000000","MEAN_ANOMALY":"280.0889","RCS_SIZE":"LARGE","ECCENTRICITY":"0.00009940","CENTER_NAME":"EARTH","MEAN_MOTION":"15.08853218","PERIAPSIS":"539.017","PERIOD":"95.437","OBJECT_ID":"2022-101V","RA_OF_ASC_NODE":"320.7152","EPHEMERIS_TYPE":"0","SEMIMAJOR_AXIS":"6917.840","REF_FRAME":"TEME","MEAN_ELEMENT_THEORY":"SGP4","OBJECT_TYPE":"PAYLOAD","CLASSIFICATION_TYPE":"U","MEAN_MOTION_DOT":"0.00003736","COUNTRY_CODE":"US","REV_AT_EPOCH":"4219","FILE":"3914964","EPOCH":"2023-05-22T21:13:58.132704","BSTAR":"0.00025258000000","TIME_SYSTEM":"UTC","TLE_LINE1":"1 53546U 22101V   23142.88470061  .00003736  00000-0  25258-3 0  9999","TLE_LINE2":"2 53546  53.2160 320.7152 0000994  80.0216 280.0889 15.08853218 42193","INCLINATION":"53.2160","NORAD_CAT_ID":"53546","LAUNCH_DATE":"2022-08-19","ELEMENT_SET_NO":"999","DECAY_DATE":null,"APOAPSIS":"540.393"},{"BSTAR":"0.00008285700000","TIME_SYSTEM":"UTC","EPOCH":"2023-05-22T19:21:26.625888","FILE":"3914964","REV_AT_EPOCH":"4270","DECAY_DATE":null,"APOAPSIS":"540.382","ELEMENT_SET_NO":"999","LAUNCH_DATE":"2022-08-19","INCLINATION":"53.2169","NORAD_CAT_ID":"53547","TLE_LINE2":"2 53547  53.2169 331.5340 0000972  71.9583 288.1515 15.08851666 42701","TLE_LINE1":"1 53547U 22101W   23142.80655817  .00001032  00000-0  82857-4 0  9992","MEAN_MOTION":"15.08851666","PERIAPSIS":"539.037","CENTER_NAME":"EARTH","ECCENTRICITY":"0.00009720","MEAN_MOTION_DDOT":"0.0000000000000","OBJECT_NAME":"STARLINK-4474","RCS_SIZE":"LARGE","MEAN_ANOMALY":"288.1515","GP_ID":"232358725","SITE":"AFETR","ARG_OF_PERICENTER":"71.9583","CLASSIFICATION_TYPE":"U","OBJECT_TYPE":"PAYLOAD","MEAN_MOTION_DOT":"0.00001032","COUNTRY_CODE":"US","MEAN_ELEMENT_THEORY":"SGP4","REF_FRAME":"TEME","SEMIMAJOR_AXIS":"6917.845","EPHEMERIS_TYPE":"0","RA_OF_ASC_NODE":"331.5340","OBJECT_ID":"2022-101W","PERIOD":"95.437"},{"CENTER_NAME":"EARTH","MEAN_MOTION":"15.08853141","PERIAPSIS":"539.143","ECCENTRICITY":"0.00008130","GP_ID":"232359975","OBJECT_NAME":"STARLINK-4513","MEAN_MOTION_DDOT":"0.0000000000000","RCS_SIZE":"LARGE","MEAN_ANOMALY":"286.8690","ARG_OF_PERICENTER":"73.2392","SITE":"AFETR","MEAN_ELEMENT_THEORY":"SGP4","CLASSIFICATION_TYPE":"U","OBJECT_TYPE":"PAYLOAD","MEAN_MOTION_DOT":"0.00007029","COUNTRY_CODE":"US","REF_FRAME":"TEME","EPHEMERIS_TYPE":"0","SEMIMAJOR_AXIS":"6917.840","PERIOD":"95.437","OBJECT_ID":"2022-101X","RA_OF_ASC_NODE":"331.0019","BSTAR":"0.00045910000000","TIME_SYSTEM":"UTC","EPOCH":"2023-05-22T22:11:01.500288","REV_AT_EPOCH":"4205","FILE":"3914964","DECAY_DATE":null,"APOAPSIS":"540.268","LAUNCH_DATE":"2022-08-19","ELEMENT_SET_NO":"999","TLE_LINE1":"1 53548U 22101X   23142.92432292  .00007029  00000-0  45910-3 0  9996","TLE_LINE2":"2 53548  53.2171 331.0019 0000813  73.2392 286.8690 15.08853141 42057","INCLINATION":"53.2171","NORAD_CAT_ID":"53548"},{"MEAN_ANOMALY":"270.4174","RCS_SIZE":"LARGE","MEAN_MOTION_DDOT":"0.0000000000000","OBJECT_NAME":"STARLINK-4516","GP_ID":"232359712","SITE":"AFETR","ARG_OF_PERICENTER":"89.6937","PERIAPSIS":"538.959","MEAN_MOTION":"15.08863712","CENTER_NAME":"EARTH","ECCENTRICITY":"0.00010320","SEMIMAJOR_AXIS":"6917.808","EPHEMERIS_TYPE":"0","OBJECT_ID":"2022-101Y","RA_OF_ASC_NODE":"331.5663","PERIOD":"95.436","COUNTRY_CODE":"US","MEAN_MOTION_DOT":"-0.00000940","OBJECT_TYPE":"PAYLOAD","CLASSIFICATION_TYPE":"U","MEAN_ELEMENT_THEORY":"SGP4","REF_FRAME":"TEME","EPOCH":"2023-05-22T19:10:50.634624","FILE":"3914964","REV_AT_EPOCH":"4269","TIME_SYSTEM":"UTC","BSTAR":"-0.00004097300000","NORAD_CAT_ID":"53549","INCLINATION":"53.2188","TLE_LINE2":"2 53549  53.2188 331.5663 0001032  89.6937 270.4174 15.08863712 42697","TLE_LINE1":"1 53549U 22101Y   23142.79919716 -.00000940  00000-0 -40973-4 0  9995","APOAPSIS":"540.387","DECAY_DATE":null,"ELEMENT_SET_NO":"999","LAUNCH_DATE":"2022-08-19"},{"PERIOD":"95.437","OBJECT_ID":"2022-101Z","RA_OF_ASC_NODE":"331.6126","EPHEMERIS_TYPE":"0","SEMIMAJOR_AXIS":"6917.843","REF_FRAME":"TEME","MEAN_ELEMENT_THEORY":"SGP4","COUNTRY_CODE":"US","MEAN_MOTION_DOT":"0.00003413","OBJECT_TYPE":"PAYLOAD","CLASSIFICATION_TYPE":"U","ARG_OF_PERICENTER":"107.3546","SITE":"AFETR","GP_ID":"232358975","MEAN_ANOMALY":"252.7555","RCS_SIZE":"LARGE","MEAN_MOTION_DDOT":"0.0000000000000","OBJECT_NAME":"STARLINK-4518","ECCENTRICITY":"0.00010020","CENTER_NAME":"EARTH","PERIAPSIS":"539.015","MEAN_MOTION":"15.08852283","TLE_LINE2":"2 53550  53.2174 331.6126 0001002 107.3546 252.7555 15.08852283 42697","TLE_LINE1":"1 53550U 22101Z   23142.78816116  .00003413  00000-0  23235-3 0  9993","NORAD_CAT_ID":"53550","INCLINATION":"53.2174","LAUNCH_DATE":"2022-08-19","ELEMENT_SET_NO":"999","APOAPSIS":"540.401","DECAY_DATE":null,"REV_AT_EPOCH":"4269","FILE":"3914964","EPOCH":"2023-05-22T18:54:57.124224","TIME_SYSTEM":"UTC","BSTAR":"0.00023235000000"}];
